NORAD_CAT_ID,OBJECT_NAME,OBJECT_TYPE,EPOCH,MEAN_MOTION,ECCENTRICITY,INCLINATION,RA_OF_ASC_NODE,ARG_OF_PERICENTER,MEAN_ANOMALY,BSTAR,MEAN_MOTION_DOT,MEAN_MOTION_DDOT,TLE_LINE0,TLE_LINE1,TLE_LINE2,SEMIMAJOR_AXIS,PERIOD,APOGEE,PERIGEE,DECAYED
51972.0,STARLINK-3671,PAYLOAD,2024-02-26 09:32:38,15.06400513,0.0001503,53.0535,123.1628,92.2982,267.8179,0.00016344,2.154e-05,0.0,0 STARLINK-3671,1 51972U 22025S   24057.39766738  .00002154  00000-0  16344-3 0  9995,2 51972  53.0535 123.1628 0001503  92.2982 267.8179 15.06400513110143,6925.347,95.592,548.253,546.171,0.0
51972.0,STARLINK-3671,PAYLOAD,2024-02-27 11:01:16,15.06399274,0.0001508,53.0548,118.3965,79.3597,280.7562,1.136e-05,-1.12e-06,0.0,0 STARLINK-3671,1 51972U 22025S   24058.45922234 -.00000112  00000-0  11360-4 0  9995,2 51972  53.0548 118.3965 0001508  79.3597 280.7562 15.06399274110309,6925.351,95.592,548.26,546.171,0.0
51972.0,STARLINK-3671,PAYLOAD,2024-02-28 12:29:54,15.06406545,0.0001679,53.0544,113.6313,88.623,271.4951,3.6603e-05,2.64e-06,0.0,0 STARLINK-3671,1 51972U 22025S   24059.52076776  .00000264  00000-0  36603-4 0  9999,2 51972  53.0544 113.6313 0001679  88.6230 271.4951 15.06406545110462,6925.328,95.592,548.356,546.031,0.0
51972.0,STARLINK-3671,PAYLOAD,2024-02-28 20:27:36,15.06395536,0.0001485,53.0545,112.1423,83.783,276.3328,0.00012778,1.622e-05,0.0,0 STARLINK-3671,1 51972U 22025S   24059.85250757  .00001622  00000-0  12778-3 0  9993,2 51972  53.0545 112.1423 0001485  83.7830 276.3328 15.06395536110511,6925.362,95.592,548.256,546.199,0.0
51972.0,STARLINK-3671,PAYLOAD,2024-02-29 10:47:28,15.0639513,0.0001579,53.055,109.4624,91.4177,268.6993,0.00011863,1.486e-05,0.0,0 STARLINK-3671,1 51972U 22025S   24060.44963112  .00001486  00000-0  11863-3 0  9998,2 51972  53.0550 109.4624 0001579  91.4177 268.6993 15.06395130109502,6925.363,95.592,548.322,546.135,0.0
51972.0,STARLINK-3671,PAYLOAD,2024-02-29 20:20:42,15.06395541,0.0001571,53.0547,107.6747,83.5835,276.5333,4.9226e-05,4.52e-06,0.0,0 STARLINK-3671,1 51972U 22025S   24060.84771395  .00000452  00000-0  49226-4 0  9999,2 51972  53.0547 107.6747 0001571  83.5835 276.5333 15.06395541109567,6925.362,95.592,548.315,546.139,0.0
51972.0,STARLINK-3671,PAYLOAD,2024-03-01 02:42:52,15.06395799,0.0001538,53.0537,106.4835,86.6607,273.4558,-1.2446e-05,-4.67e-06,0.0,0 STARLINK-3671,1 51972U 22025S   24061.11310377 -.00000467  00000-0 -12446-4 0  9991,2 51972  53.0537 106.4835 0001538  86.6607 273.4558 15.06395799110703,6925.361,95.592,548.292,546.161,0.0
51972.0,STARLINK-3671,PAYLOAD,2024-03-01 09:05:01,15.06394649,0.0001447,53.054,105.2925,84.4657,275.6496,-1.7473e-05,-5.42e-06,0.0,0 STARLINK-3671,1 51972U 22025S   24061.37849237 -.00000542  00000-0 -17473-4 0  9990,2 51972  53.0540 105.2925 0001447  84.4657 275.6496 15.06394649109643,6925.365,95.592,548.232,546.228,0.0
51972.0,STARLINK-3671,PAYLOAD,2024-03-02 08:58:06,15.06406314,0.0001548,53.0544,100.8246,90.2685,269.8481,0.00016228,2.137e-05,0.0,0 STARLINK-3671,1 51972U 22025S   24062.37368249  .00002137  00000-0  16228-3 0  9996,2 51972  53.0544 100.8246 0001548  90.2685 269.8481 15.06406314110893,6925.329,95.592,548.266,546.122,0.0
51972.0,STARLINK-3671,PAYLOAD,2024-03-03 05:40:07,15.06394463,0.0001615,53.0534,96.9527,81.1789,278.9383,8.3882e-05,9.68e-06,0.0,0 STARLINK-3671,1 51972U 22025S   24063.23620167  .00000968  00000-0  83882-4 0  9993,2 51972  53.0534  96.9527 0001615  81.1789 278.9383 15.06394463111027,6925.366,95.592,548.349,546.112,0.0
51972.0,STARLINK-3671,PAYLOAD,2024-03-03 08:51:12,15.06393398,0.0001424,53.0545,96.3572,82.9603,277.1548,9.3857e-05,1.117e-05,0.0,0 STARLINK-3671,1 51972U 22025S   24063.36889623  .00001117  00000-0  93857-4 0  9991,2 51972  53.0545  96.3572 0001424  82.9603 277.1548 15.06393398109943,6925.369,95.593,548.22,546.248,0.0
51972.0,STARLINK-3671,PAYLOAD,2024-03-04 05:33:12,15.06411665,0.0001489,53.0554,92.4892,76.0572,284.0583,-1.0104e-05,-4.32e-06,0.0,0 STARLINK-3671,1 51972U 22025S   24064.23139701 -.00000432  00000-0 -10104-4 0  9998,2 51972  53.0554  92.4892 0001489  76.0572 284.0583 15.06411665111177,6925.313,95.591,548.209,546.147,0.0
51972.0,STARLINK-3671,PAYLOAD,2024-03-04 08:44:16,15.06416012,0.0001597,53.0558,91.8922,85.6586,274.4586,5.167e-05,4.88e-06,0.0,0 STARLINK-3671,1 51972U 22025S   24064.36408538  .00000488  00000-0  51670-4 0  9991,2 51972  53.0558  91.8922 0001597  85.6586 274.4586 15.06416012110096,6925.299,95.591,548.27,546.059,0.0
51972.0,STARLINK-3671,PAYLOAD,2024-03-04 18:17:32,15.06396715,0.0001624,53.0547,90.0999,83.8878,276.2296,2.8316e-05,1.4e-06,0.0,0 STARLINK-3671,1 51972U 22025S   24064.76217774  .00000140  00000-0  28316-4 0  9991,2 51972  53.0547  90.0999 0001624  83.8878 276.2296 15.06396715111258,6925.359,95.592,548.348,546.099,0.0
51972.0,STARLINK-3671,PAYLOAD,2024-03-04 23:04:09,15.06388235,0.0001764,53.0564,89.2125,97.5542,262.5647,2.5003e-05,9.1e-07,0.0,0 STARLINK-3671,1 51972U 22025S   24064.96122547  .00000091  00000-0  25003-4 0  9991,2 51972  53.0564  89.2125 0001764  97.5542 262.5647 15.06388235110180,6925.385,95.593,548.471,546.028,0.0
51972.0,STARLINK-3671,PAYLOAD,2024-03-05 02:15:15,15.06380127,0.0001553,53.0553,88.6128,92.846,267.2707,-1.191e-05,-4.59e-06,0.0,0 STARLINK-3671,1 51972U 22025S   24065.09392584 -.00000459  00000-0 -11910-4 0  9998,2 51972  53.0553  88.6128 0001553  92.8460 267.2707 15.06380127111303,6925.409,95.593,548.35,546.199,0.0
51972.0,STARLINK-3671,PAYLOAD,2024-03-05 11:48:29,15.06387167,0.0001596,53.0552,86.8255,93.3033,266.8139,4.7313e-05,4.23e-06,0.0,0 STARLINK-3671,1 51972U 22025S   24065.49200469  .00000423  00000-0  47313-4 0  9997,2 51972  53.0552  86.8255 0001596  93.3033 266.8139 15.06387167110261,6925.388,95.593,548.358,546.148,0.0
51972.0,STARLINK-3671,PAYLOAD,2024-03-05 18:10:38,15.0639344,0.0001645,53.0547,85.6345,93.8235,266.2942,7.9179e-05,8.98e-06,0.0,0 STARLINK-3671,1 51972U 22025S   24065.75738717  .00000898  00000-0  79179-4 0  9999,2 51972  53.0547  85.6345 0001645  93.8235 266.2942 15.06393440111400,6925.369,95.593,548.373,546.094,0.0
51972.0,STARLINK-3671,PAYLOAD,2024-03-06 11:41:33,15.06436284,0.0001428,53.0529,82.3568,97.1505,262.9646,0.0013947,0.00020574,0.0,0 STARLINK-3671,1 51972U 22025S   24066.48718915  .00020574  00000-0  13947-2 0  9990,2 51972  53.0529  82.3568 0001428  97.1505 262.9646 15.06436284111517,6925.237,95.59,548.091,546.113,0.0
51972.0,STARLINK-3671,PAYLOAD,2024-03-07 08:23:34,15.06396663,0.0001358,53.0536,78.4859,81.0685,279.0458,0.00096373,0.00014101,0.0,0 STARLINK-3671,1 51972U 22025S   24067.34970454  .00014101  00000-0  96373-3 0  9998,2 51972  53.0536  78.4859 0001358  81.0685 279.0458 15.06396663110545,6925.359,95.592,548.164,546.283,0.0
51972.0,STARLINK-3671,PAYLOAD,2024-03-08 05:05:35,15.06399739,0.0001528,53.0544,74.6126,88.3449,271.7715,0.00068404,9.922e-05,0.0,0 STARLINK-3671,1 51972U 22025S   24068.21221768  .00009922  00000-0  68404-3 0  9991,2 51972  53.0544  74.6126 0001528  88.3449 271.7715 15.06399739111774,6925.349,95.592,548.273,546.156,0.0
51972.0,STARLINK-3671,PAYLOAD,2024-03-08 06:41:07,15.06399042,0.0001342,53.0551,74.3134,95.5705,264.5437,0.00062257,9.004e-05,0.0,0 STARLINK-3671,1 51972U 22025S   24068.27856380  .00009004  00000-0  62257-3 0  9992,2 51972  53.0551  74.3134 0001342  95.5705 264.5437 15.06399042110684,6925.351,95.592,548.146,546.287,0.0
51972.0,STARLINK-3671,PAYLOAD,2024-03-08 17:49:54,15.06398483,0.0001592,53.0547,72.2276,103.28,256.8367,0.00043815,6.25e-05,0.0,0 STARLINK-3671,1 51972U 22025S   24068.74299274  .00006250  00000-0  43815-3 0  9996,2 51972  53.0547  72.2276 0001592 103.2800 256.8367 15.06398483110755,6925.353,95.592,548.321,546.116,0.0
51972.0,STARLINK-3671,PAYLOAD,2024-03-09 04:58:41,15.06400994,0.0001614,53.0548,70.1423,105.3901,254.7266,0.00041803,5.951e-05,0.0,0 STARLINK-3671,1 51972U 22025S   24069.20742167  .00005951  00000-0  41803-3 0  9994,2 51972  53.0548  70.1423 0001614 105.3901 254.7266 15.06400994111923,6925.346,95.592,548.328,546.093,0.0
51972.0,STARLINK-3671,PAYLOAD,2024-03-09 06:34:13,15.06401714,0.0001332,53.0544,69.8459,97.5611,262.5529,0.00041657,5.929e-05,0.0,0 STARLINK-3671,1 51972U 22025S   24069.27376845  .00005929  00000-0  41657-3 0  9999,2 51972  53.0544  69.8459 0001332  97.5611 262.5529 15.06401714110839,6925.343,95.592,548.131,546.286,0.0
51972.0,STARLINK-3671,PAYLOAD,2024-03-10 04:51:46,15.06402163,0.0001565,53.0538,65.6758,100.2093,259.9072,0.00027506,3.818e-05,0.0,0 STARLINK-3671,1 51972U 22025S   24070.20262533  .00003818  00000-0  27506-3 0  9994,2 51972  53.0538  65.6758 0001565 100.2093 259.9072 15.06402163112072,6925.342,95.592,548.291,546.123,0.0
51972.0,STARLINK-3671,PAYLOAD,2024-03-10 06:27:19,15.06402515,0.0001205,53.0533,65.3791,92.892,267.2207,0.00033518,4.715e-05,0.0,0 STARLINK-3671,1 51972U 22025S   24070.26897216  .00004715  00000-0  33518-3 0  9999,2 51972  53.0533  65.3791 0001205  92.8920 267.2207 15.06402515110988,6925.341,95.592,548.04,546.371,0.0
51972.0,STARLINK-3671,PAYLOAD,2024-03-10 16:00:33,15.06402874,0.0001278,53.0543,63.5909,92.6502,267.4633,0.00026392,3.652e-05,0.0,0 STARLINK-3671,1 51972U 22025S   24070.66705294  .00003652  00000-0  26392-3 0  9998,2 51972  53.0543  63.5909 0001278  92.6502 267.4633 15.06402874111045,6925.34,95.592,548.09,546.32,0.0
51972.0,STARLINK-3671,PAYLOAD,2024-03-11 04:44:52,15.06394585,0.0001456,53.0537,61.208,94.9995,265.1161,7.1934e-05,7.9e-06,0.0,0 STARLINK-3671,1 51972U 22025S   24071.19783155  .00000790  00000-0  71934-4 0  9992,2 51972  53.0537  61.2080 0001456  94.9995 265.1161 15.06394585112223,6925.365,95.592,548.238,546.222,0.0
51972.0,STARLINK-3671,PAYLOAD,2024-03-11 06:20:24,15.06399425,0.000132,53.0533,60.9102,88.7285,271.3855,0.00018464,2.47e-05,0.0,0 STARLINK-3671,1 51972U 22025S   24071.26417731  .00002470  00000-0  18464-3 0  9999,2 51972  53.0533  60.9102 0001320  88.7285 271.3855 15.06399425111139,6925.35,95.592,548.129,546.301,0.0
